[
    {
        "OBJECT_NAME": "NAVSTAR 74 (USA 262)",
        "OBJECT_ID": "2015-033A",
        "EPOCH": "2026-06-20T05:06:10.287648",
        "MEAN_MOTION": 2.00556106,
        "ECCENTRICITY": 0.0115099,
        "INCLINATION": 53.9799,
        "RA_OF_ASC_NODE": 266.9618,
        "ARG_OF_PERICENTER": 30.2397,
        "MEAN_ANOMALY": 330.4594,
        "EPHEMERIS_TYPE": 0,
        "CLASSIFICATION_TYPE": "U",
        "NORAD_CAT_ID": 40730,
        "ELEMENT_SET_NO": 999,
        "REV_AT_EPOCH": 8005,
        "BSTAR": 0,
        "MEAN_MOTION_DOT": -5.6e-07,
        "MEAN_MOTION_DDOT": 0
    },
    {
        "OBJECT_NAME": "NAVSTAR 75 (USA 265)",
        "OBJECT_ID": "2015-062A",
        "EPOCH": "2026-06-19T18:28:48.821664",
        "MEAN_MOTION": 2.00567013,
        "ECCENTRICITY": 0.01120099,
        "INCLINATION": 56.9611,
        "RA_OF_ASC_NODE": 30.7115,
        "ARG_OF_PERICENTER": 231.0751,
        "MEAN_ANOMALY": 127.969,
        "EPHEMERIS_TYPE": 0,
        "CLASSIFICATION_TYPE": "U",
        "NORAD_CAT_ID": 41019,
        "ELEMENT_SET_NO": 999,
        "REV_AT_EPOCH": 7788,
        "BSTAR": 0,
        "MEAN_MOTION_DOT": -9.1e-07,
        "MEAN_MOTION_DDOT": 0
    },
    {
        "OBJECT_NAME": "NAVSTAR 76 (USA 266)",
        "OBJECT_ID": "2016-007A",
        "EPOCH": "2026-06-13T21:04:02.010720",
        "MEAN_MOTION": 2.00551861,
        "ECCENTRICITY": 0.00961206,
        "INCLINATION": 55.522,
        "RA_OF_ASC_NODE": 89.5909,
        "ARG_OF_PERICENTER": 247.4205,
        "MEAN_ANOMALY": 111.546,
        "EPHEMERIS_TYPE": 0,
        "CLASSIFICATION_TYPE": "U",
        "NORAD_CAT_ID": 41328,
        "ELEMENT_SET_NO": 999,
        "REV_AT_EPOCH": 7577,
        "BSTAR": 0,
        "MEAN_MOTION_DOT": -2.8e-07,
        "MEAN_MOTION_DDOT": 0
    },
    {
        "OBJECT_NAME": "NAVSTAR 77 (USA 289)",
        "OBJECT_ID": "2018-109A",
        "EPOCH": "2026-06-20T05:05:04.461216",
        "MEAN_MOTION": 2.00561777,
        "ECCENTRICITY": 0.0038226,
        "INCLINATION": 55.684,
        "RA_OF_ASC_NODE": 92.067,
        "ARG_OF_PERICENTER": 197.8624,
        "MEAN_ANOMALY": 309.8411,
        "EPHEMERIS_TYPE": 0,
        "CLASSIFICATION_TYPE": "U",
        "NORAD_CAT_ID": 43873,
        "ELEMENT_SET_NO": 999,
        "REV_AT_EPOCH": 5513,
        "BSTAR": 0,
        "MEAN_MOTION_DOT": -1.9e-07,
        "MEAN_MOTION_DDOT": 0
    },
    {
        "OBJECT_NAME": "NAVSTAR 78 (USA 293)",
        "OBJECT_ID": "2019-056A",
        "EPOCH": "2026-06-19T21:07:19.603200",
        "MEAN_MOTION": 2.00569711,
        "ECCENTRICITY": 0.00621448,
        "INCLINATION": 55.6357,
        "RA_OF_ASC_NODE": 331.0347,
        "ARG_OF_PERICENTER": 197.6254,
        "MEAN_ANOMALY": 334.2547,
        "EPHEMERIS_TYPE": 0,
        "CLASSIFICATION_TYPE": "U",
        "NORAD_CAT_ID": 44506,
        "ELEMENT_SET_NO": 999,
        "REV_AT_EPOCH": 5012,
        "BSTAR": 0,
        "MEAN_MOTION_DOT": -9.2e-07,
        "MEAN_MOTION_DDOT": 0
    },
    {
        "OBJECT_NAME": "NAVSTAR 79 (USA 304)",
        "OBJECT_ID": "2020-041A",
        "EPOCH": "2026-06-19T17:21:46.956096",
        "MEAN_MOTION": 2.00558579,
        "ECCENTRICITY": 0.00640019,
        "INCLINATION": 56.6713,
        "RA_OF_ASC_NODE": 28.8441,
        "ARG_OF_PERICENTER": 204.6185,
        "MEAN_ANOMALY": 152.4669,
        "EPHEMERIS_TYPE": 0,
        "CLASSIFICATION_TYPE": "U",
        "NORAD_CAT_ID": 45854,
        "ELEMENT_SET_NO": 999,
        "REV_AT_EPOCH": 4408,
        "BSTAR": 0,
        "MEAN_MOTION_DOT": -9.2e-07,
        "MEAN_MOTION_DDOT": 0
    },
    {
        "OBJECT_NAME": "NAVSTAR 80 (USA 309)",
        "OBJECT_ID": "2020-078A",
        "EPOCH": "2026-06-20T06:41:49.703136",
        "MEAN_MOTION": 2.00564914,
        "ECCENTRICITY": 0.0073634,
        "INCLINATION": 53.9792,
        "RA_OF_ASC_NODE": 210.6528,
        "ARG_OF_PERICENTER": 207.3587,
        "MEAN_ANOMALY": 167.3205,
        "EPHEMERIS_TYPE": 0,
        "CLASSIFICATION_TYPE": "U",
        "NORAD_CAT_ID": 46826,
        "ELEMENT_SET_NO": 999,
        "REV_AT_EPOCH": 4157,
        "BSTAR": 0,
        "MEAN_MOTION_DOT": 2.8e-07,
        "MEAN_MOTION_DDOT": 0
    },
    {
        "OBJECT_NAME": "NAVSTAR 81 (USA 319)",
        "OBJECT_ID": "2021-054A",
        "EPOCH": "2026-06-20T00:07:00.780096",
        "MEAN_MOTION": 2.00568793,
        "ECCENTRICITY": 0.00253561,
        "INCLINATION": 55.1728,
        "RA_OF_ASC_NODE": 332.3454,
        "ARG_OF_PERICENTER": 228.595,
        "MEAN_ANOMALY": 134.3763,
        "EPHEMERIS_TYPE": 0,
        "CLASSIFICATION_TYPE": "U",
        "NORAD_CAT_ID": 48859,
        "ELEMENT_SET_NO": 999,
        "REV_AT_EPOCH": 3681,
        "BSTAR": 0,
        "MEAN_MOTION_DOT": -9.4e-07,
        "MEAN_MOTION_DDOT": 0
    },
    {
        "OBJECT_NAME": "NAVSTAR 82 (USA 343)",
        "OBJECT_ID": "2023-009A",
        "EPOCH": "2026-06-19T22:41:10.908960",
        "MEAN_MOTION": 2.00571329,
        "ECCENTRICITY": 0.00061771,
        "INCLINATION": 55.1232,
        "RA_OF_ASC_NODE": 148.4103,
        "ARG_OF_PERICENTER": 317.2306,
        "MEAN_ANOMALY": 41.0383,
        "EPHEMERIS_TYPE": 0,
        "CLASSIFICATION_TYPE": "U",
        "NORAD_CAT_ID": 55268,
        "ELEMENT_SET_NO": 999,
        "REV_AT_EPOCH": 2529,
        "BSTAR": 0,
        "MEAN_MOTION_DOT": 6.3e-07,
        "MEAN_MOTION_DDOT": 0
    },
    {
        "OBJECT_NAME": "NAVSTAR 83 (USA 440)",
        "OBJECT_ID": "2024-242A",
        "EPOCH": "2026-06-20T01:54:13.834656",
        "MEAN_MOTION": 2.00571569,
        "ECCENTRICITY": 0.0017493,
        "INCLINATION": 54.8474,
        "RA_OF_ASC_NODE": 334.0632,
        "ARG_OF_PERICENTER": 4.3355,
        "MEAN_ANOMALY": 173.0364,
        "EPHEMERIS_TYPE": 0,
        "CLASSIFICATION_TYPE": "U",
        "NORAD_CAT_ID": 62339,
        "ELEMENT_SET_NO": 999,
        "REV_AT_EPOCH": 1131,
        "BSTAR": 0,
        "MEAN_MOTION_DOT": -9.5e-07,
        "MEAN_MOTION_DDOT": 0
    },
    {
        "OBJECT_NAME": "NAVSTAR 84 (USA 545)",
        "OBJECT_ID": "2025-116A",
        "EPOCH": "2026-06-19T19:56:38.651424",
        "MEAN_MOTION": 2.00575689,
        "ECCENTRICITY": 0.000858,
        "INCLINATION": 55.2365,
        "RA_OF_ASC_NODE": 31.0232,
        "ARG_OF_PERICENTER": 338.6796,
        "MEAN_ANOMALY": 202.2641,
        "EPHEMERIS_TYPE": 0,
        "CLASSIFICATION_TYPE": "U",
        "NORAD_CAT_ID": 64202,
        "ELEMENT_SET_NO": 999,
        "REV_AT_EPOCH": 792,
        "BSTAR": 0,
        "MEAN_MOTION_DOT": -9.3e-07,
        "MEAN_MOTION_DDOT": 0
    },
    {
        "OBJECT_NAME": "NAVSTAR 85 (USA 581)",
        "OBJECT_ID": "2026-017A",
        "EPOCH": "2026-06-20T04:31:41.316960",
        "MEAN_MOTION": 2.00571091,
        "ECCENTRICITY": 0.0021974,
        "INCLINATION": 55.0902,
        "RA_OF_ASC_NODE": 88.6347,
        "ARG_OF_PERICENTER": 258.6417,
        "MEAN_ANOMALY": 101.118,
        "EPHEMERIS_TYPE": 0,
        "CLASSIFICATION_TYPE": "U",
        "NORAD_CAT_ID": 67588,
        "ELEMENT_SET_NO": 999,
        "REV_AT_EPOCH": 43167,
        "BSTAR": 0,
        "MEAN_MOTION_DOT": -2.6e-07,
        "MEAN_MOTION_DDOT": 0
    },
    {
        "OBJECT_NAME": "NAVSTAR 86 (USA 585)",
        "OBJECT_ID": "2026-087A",
        "EPOCH": "2026-06-19T09:48:38.619648",
        "MEAN_MOTION": 2.00570427,
        "ECCENTRICITY": 0.00206003,
        "INCLINATION": 54.9628,
        "RA_OF_ASC_NODE": 207.6996,
        "ARG_OF_PERICENTER": 106.9834,
        "MEAN_ANOMALY": 255.2232,
        "EPHEMERIS_TYPE": 0,
        "CLASSIFICATION_TYPE": "U",
        "NORAD_CAT_ID": 68791,
        "ELEMENT_SET_NO": 999,
        "REV_AT_EPOCH": 88,
        "BSTAR": 0,
        "MEAN_MOTION_DOT": 3.1e-07,
        "MEAN_MOTION_DDOT": 0
    }
]